start=new Date('2023-05-24T00:00:00.000Z').valueOf();
sats=[{"FILE":"3915766","DECAY_DATE":null,"MEAN_ELEMENT_THEORY":"SGP4","MEAN_MOTION":"15.08837484","MEAN_MOTION_DOT":"0.00000031","REF_FRAME":"TEME","MEAN_ANOMALY":"277.0514","ARG_OF_PERICENTER":"83.0590","PERIAPSIS":"539.073","OBJECT_NAME":"STARLINK-4673","ECCENTRICITY":"0.00009830","SEMIMAJOR_AXIS":"6917.888","NORAD_CAT_ID":"53589","PERIOD":"95.438","EPHEMERIS_TYPE":"0","CLASSIFICATION_TYPE":"U","COUNTRY_CODE":"US","RCS_SIZE":"LARGE","OBJECT_TYPE":"PAYLOAD","TLE_LINE1":"1 53589U 22104B   23143.39720906  .00000031  00000-0  20047-4 0  9999","LAUNCH_DATE":"2022-08-28","CENTER_NAME":"EARTH","TLE_LINE2":"2 53589  53.2156 148.9287 0000983  83.0590 277.0514 15.08837484 41760","SITE":"AFETR","APOAPSIS":"540.433","RA_OF_ASC_NODE":"148.9287","MEAN_MOTION_DDOT":"0.0000000000000","GP_ID":"232405226","BSTAR":"0.00002004700000","OBJECT_ID":"2022-104B","INCLINATION":"53.2156","REV_AT_EPOCH":"4176","ELEMENT_SET_NO":"999","EPOCH":"2023-05-23T09:31:58.862784","TIME_SYSTEM":"UTC"},{"TLE_LINE1":"1 53590U 22104C   23143.74314400  .00000949  00000-0  77680-4 0  9991","LAUNCH_DATE":"2022-08-28","TLE_LINE2":"2 53590  53.2161 147.5360 0000748  82.1235 277.9842 15.08839707 41831","CENTER_NAME":"EARTH","APOAPSIS":"540.264","SITE":"AFETR","RA_OF_ASC_NODE":"147.5360","MEAN_MOTION_DDOT":"0.0000000000000","BSTAR":"0.00007768000000","GP_ID":"232405978","REV_AT_EPOCH":"4183","OBJECT_ID":"2022-104C","INCLINATION":"53.2161","EPOCH":"2023-05-23T17:50:07.641600","ELEMENT_SET_NO":"999","TIME_SYSTEM":"UTC","FILE":"3915766","DECAY_DATE":null,"MEAN_ELEMENT_THEORY":"SGP4","REF_FRAME":"TEME","MEAN_MOTION_DOT":"0.00000949","MEAN_MOTION":"15.08839707","MEAN_ANOMALY":"277.9842","ARG_OF_PERICENTER":"82.1235","OBJECT_NAME":"STARLINK-4689","PERIAPSIS":"539.229","ECCENTRICITY":"0.00007480","SEMIMAJOR_AXIS":"6917.881","PERIOD":"95.438","NORAD_CAT_ID":"53590","EPHEMERIS_TYPE":"0","OBJECT_TYPE":"PAYLOAD","COUNTRY_CODE":"US","RCS_SIZE":"LARGE","CLASSIFICATION_TYPE":"U"},{"SEMIMAJOR_AXIS":"6917.889","ECCENTRICITY":"0.00011160","PERIAPSIS":"538.982","OBJECT_NAME":"STARLINK-4674","CLASSIFICATION_TYPE":"U","OBJECT_TYPE":"PAYLOAD","COUNTRY_CODE":"US","RCS_SIZE":"LARGE","EPHEMERIS_TYPE":"0","PERIOD":"95.438","NORAD_CAT_ID":"53591","MEAN_MOTION":"15.08837231","MEAN_MOTION_DOT":"0.00000304","REF_FRAME":"TEME","DECAY_DATE":null,"MEAN_ELEMENT_THEORY":"SGP4","FILE":"3915766","ARG_OF_PERICENTER":"92.6777","MEAN_ANOMALY":"267.4343","GP_ID":"232406227","BSTAR":"0.00003718200000","MEAN_MOTION_DDOT":"0.0000000000000","TIME_SYSTEM":"UTC","ELEMENT_SET_NO":"999","EPOCH":"2023-05-23T17:44:49.642080","REV_AT_EPOCH":"4183","OBJECT_ID":"2022-104D","INCLINATION":"53.2159","LAUNCH_DATE":"2022-08-28","TLE_LINE1":"1 53591U 22104D   23143.73946345  .00000304  00000-0  37182-4 0  9998","RA_OF_ASC_NODE":"147.5113","SITE":"AFETR","APOAPSIS":"540.526","CENTER_NAME":"EARTH","TLE_LINE2":"2 53591  53.2159 147.5113 0001116  92.6777 267.4343 15.08837231 41832"},{"SEMIMAJOR_AXIS":"6917.878","ECCENTRICITY":"0.00012110","OBJECT_NAME":"STARLINK-4672","PERIAPSIS":"538.905","RCS_SIZE":"LARGE","COUNTRY_CODE":"US","OBJECT_TYPE":"PAYLOAD","CLASSIFICATION_TYPE":"U","EPHEMERIS_TYPE":"0","NORAD_CAT_ID":"53592","PERIOD":"95.438","MEAN_MOTION_DOT":"0.00000685","REF_FRAME":"TEME","MEAN_MOTION":"15.08840707","MEAN_ELEMENT_THEORY":"SGP4","DECAY_DATE":null,"FILE":"3915766","ARG_OF_PERICENTER":"85.3351","MEAN_ANOMALY":"274.7780","BSTAR":"0.00006113500000","GP_ID":"232404476","MEAN_MOTION_DDOT":"0.0000000000000","TIME_SYSTEM":"UTC","EPOCH":"2023-05-23T17:40:53.872032","ELEMENT_SET_NO":"999","INCLINATION":"53.2152","OBJECT_ID":"2022-104E","REV_AT_EPOCH":"4181","LAUNCH_DATE":"2022-08-28","TLE_LINE1":"1 53592U 22104E   23143.73673463  .00000685  00000-0  61135-4 0  9994","RA_OF_ASC_NODE":"147.4952","APOAPSIS":"540.581","SITE":"AFETR","TLE_LINE2":"2 53592  53.2152 147.4952 0001211  85.3351 274.7780 15.08840707 41815","CENTER_NAME":"EARTH"},{"MEAN_ANOMALY":"275.7998","ARG_OF_PERICENTER":"84.3134","FILE":"3915766","MEAN_ELEMENT_THEORY":"SGP4","DECAY_DATE":null,"MEAN_MOTION_DOT":"0.00000696","REF_FRAME":"TEME","MEAN_MOTION":"15.08839463","NORAD_CAT_ID":"53593","PERIOD":"95.438","EPHEMERIS_TYPE":"0","CLASSIFICATION_TYPE":"U","OBJECT_TYPE":"PAYLOAD","COUNTRY_CODE":"US","RCS_SIZE":"LARGE","PERIAPSIS":"538.904","OBJECT_NAME":"STARLINK-4671","ECCENTRICITY":"0.00012190","SEMIMAJOR_AXIS":"6917.882","CENTER_NAME":"EARTH","TLE_LINE2":"2 53593  53.2163 147.4656 0001219  84.3134 275.7998 15.08839463 41814","APOAPSIS":"540.590","SITE":"AFETR","RA_OF_ASC_NODE":"147.4656","TLE_LINE1":"1 53593U 22104F   23143.73209216  .00000696  00000-0  61796-4 0  9991","LAUNCH_DATE":"2022-08-28","INCLINATION":"53.2163","OBJECT_ID":"2022-104F","REV_AT_EPOCH":"4181","ELEMENT_SET_NO":"999","EPOCH":"2023-05-23T17:34:12.762624","TIME_SYSTEM":"UTC","MEAN_MOTION_DDOT":"0.0000000000000","GP_ID":"232404726","BSTAR":"0.00006179600000"},{"LAUNCH_DATE":"2022-08-28","TLE_LINE1":"1 53594U 22104G   23143.72104012 -.00000561  00000-0 -17150-4 0  9997","RA_OF_ASC_NODE":"147.3985","CENTER_NAME":"EARTH","TLE_LINE2":"2 53594  53.2154 147.3985 0001196  94.6484 265.4645 15.08838104 41956","APOAPSIS":"540.579","SITE":"AFETR","GP_ID":"232405478","BSTAR":"-0.00001715000000","MEAN_MOTION_DDOT":"0.0000000000000","ELEMENT_SET_NO":"999","EPOCH":"2023-05-23T17:18:17.866368","TIME_SYSTEM":"UTC","OBJECT_ID":"2022-104G","INCLINATION":"53.2154","REV_AT_EPOCH":"4195","DECAY_DATE":null,"MEAN_ELEMENT_THEORY":"SGP4","REF_FRAME":"TEME","MEAN_MOTION_DOT":"-0.00000561","MEAN_MOTION":"15.08838104","FILE":"3915766","ARG_OF_PERICENTER":"94.6484","MEAN_ANOMALY":"265.4645","SEMIMAJOR_AXIS":"6917.886","PERIAPSIS":"538.924","OBJECT_NAME":"STARLINK-4681","ECCENTRICITY":"0.00011960","CLASSIFICATION_TYPE":"U","COUNTRY_CODE":"US","OBJECT_TYPE":"PAYLOAD","RCS_SIZE":"LARGE","PERIOD":"95.438","NORAD_CAT_ID":"53594","EPHEMERIS_TYPE":"0"},{"CLASSIFICATION_TYPE":"U","OBJECT_TYPE":"PAYLOAD","COUNTRY_CODE":"US","RCS_SIZE":"LARGE","NORAD_CAT_ID":"53595","PERIOD":"95.438","EPHEMERIS_TYPE":"0","SEMIMAJOR_AXIS":"6917.880","PERIAPSIS":"538.918","OBJECT_NAME":"STARLINK-4684","ECCENTRICITY":"0.00011950","ARG_OF_PERICENTER":"84.1387","MEAN_ANOMALY":"275.9742","DECAY_DATE":null,"MEAN_ELEMENT_THEORY":"SGP4","MEAN_MOTION":"15.08840143","MEAN_MOTION_DOT":"0.00000177","REF_FRAME":"TEME","FILE":"3915766","ELEMENT_SET_NO":"999","EPOCH":"2023-05-23T09:26:40.350048","TIME_SYSTEM":"UTC","OBJECT_ID":"2022-104H","REV_AT_EPOCH":"4176","INCLINATION":"53.2158","GP_ID":"232405727","BSTAR":"0.00002922500000","MEAN_MOTION_DDOT":"0.0000000000000","RA_OF_ASC_NODE":"148.9096","CENTER_NAME":"EARTH","TLE_LINE2":"2 53595  53.2158 148.9096 0001195  84.1387 275.9742 15.08840143 41765","APOAPSIS":"540.572","SITE":"AFETR","LAUNCH_DATE":"2022-08-28","TLE_LINE1":"1 53595U 22104H   23143.39352257  .00000177  00000-0  29225-4 0  9994"},{"TLE_LINE2":"2 53596  53.2160 147.3541 0001127  83.4408 276.6712 15.08837215 41488","CENTER_NAME":"EARTH","APOAPSIS":"540.534","SITE":"AFETR","RA_OF_ASC_NODE":"147.3541","TLE_LINE1":"1 53596U 22104J   23143.71367086  .00000577  00000-0  54341-4 0  9998","LAUNCH_DATE":"2022-08-28","INCLINATION":"53.2160","OBJECT_ID":"2022-104J","REV_AT_EPOCH":"4148","EPOCH":"2023-05-23T17:07:41.162304","ELEMENT_SET_NO":"999","TIME_SYSTEM":"UTC","MEAN_MOTION_DDOT":"0.0000000000000","BSTAR":"0.00005434100000","GP_ID":"232404977","MEAN_ANOMALY":"276.6712","ARG_OF_PERICENTER":"83.4408","FILE":"3915766","DECAY_DATE":null,"MEAN_ELEMENT_THEORY":"SGP4","MEAN_MOTION_DOT":"0.00000577","REF_FRAME":"TEME","MEAN_MOTION":"15.08837215","PERIOD":"95.438","NORAD_CAT_ID":"53596","EPHEMERIS_TYPE":"0","RCS_SIZE":"LARGE","COUNTRY_CODE":"US","OBJECT_TYPE":"PAYLOAD","CLASSIFICATION_TYPE":"U","OBJECT_NAME":"STARLINK-4668","PERIAPSIS":"538.974","ECCENTRICITY":"0.00011270","SEMIMAJOR_AXIS":"6917.889"},{"LAUNCH_DATE":"2022-08-28","TLE_LINE1":"1 53597U 22104K   23143.71735419  .00000354  00000-0  40331-4 0  9995","RA_OF_ASC_NODE":"147.3764","CENTER_NAME":"EARTH","TLE_LINE2":"2 53597  53.2159 147.3764 0001208  92.9441 267.1690 15.08835535 41489","SITE":"AFETR","APOAPSIS":"540.595","GP_ID":"232405227","BSTAR":"0.00004033100000","MEAN_MOTION_DDOT":"0.0000000000000","ELEMENT_SET_NO":"999","EPOCH":"2023-05-23T17:12:59.402016","TIME_SYSTEM":"UTC","REV_AT_EPOCH":"4148","INCLINATION":"53.2159","OBJECT_ID":"2022-104K","DECAY_DATE":null,"MEAN_ELEMENT_THEORY":"SGP4","MEAN_MOTION_DOT":"0.00000354","MEAN_MOTION":"15.08835535","REF_FRAME":"TEME","FILE":"3915766","ARG_OF_PERICENTER":"92.9441","MEAN_ANOMALY":"267.1690","SEMIMAJOR_AXIS":"6917.894","PERIAPSIS":"538.923","OBJECT_NAME":"STARLINK-4682","ECCENTRICITY":"0.00012080","CLASSIFICATION_TYPE":"U","OBJECT_TYPE":"PAYLOAD","COUNTRY_CODE":"US","RCS_SIZE":"LARGE","PERIOD":"95.438","NORAD_CAT_ID":"53597","EPHEMERIS_TYPE":"0"},{"MEAN_MOTION":"15.08835311","MEAN_MOTION_DOT":"0.00000479","REF_FRAME":"TEME","DECAY_DATE":null,"MEAN_ELEMENT_THEORY":"SGP4","FILE":"3915766","ARG_OF_PERICENTER":"88.7942","MEAN_ANOMALY":"271.3181","SEMIMAJOR_AXIS":"6917.895","ECCENTRICITY":"0.00011490","PERIAPSIS":"538.965","OBJECT_NAME":"STARLINK-4676","CLASSIFICATION_TYPE":"U","COUNTRY_CODE":"US","OBJECT_TYPE":"PAYLOAD","RCS_SIZE":"LARGE","EPHEMERIS_TYPE":"0","NORAD_CAT_ID":"53598","PERIOD":"95.438","LAUNCH_DATE":"2022-08-28","TLE_LINE1":"1 53598U 22104L   23143.70629927  .00000479  00000-0  48211-4 0  9994","RA_OF_ASC_NODE":"147.3076","APOAPSIS":"540.555","SITE":"AFETR","CENTER_NAME":"EARTH","TLE_LINE2":"2 53598  53.2162 147.3076 0001149  88.7942 271.3181 15.08835311 41487","GP_ID":"232405979","BSTAR":"0.00004821100000","MEAN_MOTION_DDOT":"0.0000000000000","TIME_SYSTEM":"UTC","ELEMENT_SET_NO":"999","EPOCH":"2023-05-23T16:57:04.256928","OBJECT_ID":"2022-104L","REV_AT_EPOCH":"4148","INCLINATION":"53.2162"}];
